CZ-2C R/B               
1 54039U 22132E   26039.96481342  .00037355  00000+0  47013-3 0  9998
2 54039  97.2963  42.4704 0018307 188.3628 171.7326 15.59359823185893
GSLV R/B                
1 54149U 22138AN  26040.30502178  .00004358  00000+0  37947-3 0  9999
2 54149  87.3860 175.8600 0019376 253.1706 106.7401 14.96555565179685
XRISM                   
1 57800U 23137A   26040.24119550  .00007124  00000+0  40858-3 0  9996
2 57800  31.0018 107.6122 0008058 115.7992 244.3478 15.11146318133481
ACS3                    
1 59588U 24077B   26040.25941611  .00018723  00000+0  15469-1 0  9992
2 59588  97.2219 347.7630 0045616 165.1424 195.1091 13.88426089 90253
SZ-21 MODULE            
1 66515U 25246C   26040.27417321  .00037161  00000+0  34919-3 0  9997
2 66515  41.4766  17.9863 0002766 286.9466  73.1072 15.66393879 13617
