CCSDS_OMM_VERS = 2.0
CREATION_DATE  = 
ORIGINATOR     = 

OBJECT_NAME    = CZ-2C R/B
OBJECT_ID      = 2022-132E
CENTER_NAME    = EARTH
REF_FRAME      = TEME
TIME_SYSTEM    = UTC
MEAN_ELEMENT_THEORY = SGP/SGP4

EPOCH          = 2026-02-08T23:09:19.879488
MEAN_MOTION    = 15.59359823
ECCENTRICITY   = .00183071
INCLINATION    = 97.2963
RA_OF_ASC_NODE = 42.4704
ARG_OF_PERICENTER = 188.3628
MEAN_ANOMALY   = 171.7326

EPHEMERIS_TYPE = 0
CLASSIFICATION_TYPE = U
NORAD_CAT_ID   = 54039
ELEMENT_SET_NO = 999
REV_AT_EPOCH   = 18589
BSTAR          = .47012933E-3
MEAN_MOTION_DOT = .37355E-3
MEAN_MOTION_DDOT = 0

CCSDS_OMM_VERS = 2.0
CREATION_DATE  = 
ORIGINATOR     = 

OBJECT_NAME    = GSLV R/B
OBJECT_ID      = 2022-138AN
CENTER_NAME    = EARTH
REF_FRAME      = TEME
TIME_SYSTEM    = UTC
MEAN_ELEMENT_THEORY = SGP/SGP4

EPOCH          = 2026-02-09T07:19:13.881792
MEAN_MOTION    = 14.96555565
ECCENTRICITY   = .0019376
INCLINATION    = 87.3860
RA_OF_ASC_NODE = 175.8600
ARG_OF_PERICENTER = 253.1706
MEAN_ANOMALY   = 106.7401

EPHEMERIS_TYPE = 0
CLASSIFICATION_TYPE = U
NORAD_CAT_ID   = 54149
ELEMENT_SET_NO = 999
REV_AT_EPOCH   = 17968
BSTAR          = .37946816E-3
MEAN_MOTION_DOT = .4358E-4
MEAN_MOTION_DDOT = 0

CCSDS_OMM_VERS = 2.0
CREATION_DATE  = 
ORIGINATOR     = 

OBJECT_NAME    = XRISM
OBJECT_ID      = 2023-137A
CENTER_NAME    = EARTH
REF_FRAME      = TEME
TIME_SYSTEM    = UTC
MEAN_ELEMENT_THEORY = SGP/SGP4

EPOCH          = 2026-02-09T05:47:19.291200
MEAN_MOTION    = 15.11146318
ECCENTRICITY   = .00080588
INCLINATION    = 31.0018
RA_OF_ASC_NODE = 107.6122
ARG_OF_PERICENTER = 115.7992
MEAN_ANOMALY   = 244.3478

EPHEMERIS_TYPE = 0
CLASSIFICATION_TYPE = U
NORAD_CAT_ID   = 57800
ELEMENT_SET_NO = 999
REV_AT_EPOCH   = 13348
BSTAR          = .40858479E-3
MEAN_MOTION_DOT = .7124E-4
MEAN_MOTION_DDOT = 0

CCSDS_OMM_VERS = 2.0
CREATION_DATE  = 
ORIGINATOR     = 

OBJECT_NAME    = ACS3
OBJECT_ID      = 2024-077B
CENTER_NAME    = EARTH
REF_FRAME      = TEME
TIME_SYSTEM    = UTC
MEAN_ELEMENT_THEORY = SGP/SGP4

EPOCH          = 2026-02-09T06:13:33.551904
MEAN_MOTION    = 13.88426089
ECCENTRICITY   = .00456167
INCLINATION    = 97.2219
RA_OF_ASC_NODE = 347.7630
ARG_OF_PERICENTER = 165.1424
MEAN_ANOMALY   = 195.1091

EPHEMERIS_TYPE = 0
CLASSIFICATION_TYPE = U
NORAD_CAT_ID   = 59588
ELEMENT_SET_NO = 999
REV_AT_EPOCH   = 9025
BSTAR          = .15468727E-1
MEAN_MOTION_DOT = .18723E-3
MEAN_MOTION_DDOT = 0

CCSDS_OMM_VERS = 2.0
CREATION_DATE  = 
ORIGINATOR     = 

OBJECT_NAME    = SZ-21 MODULE
OBJECT_ID      = 2025-246C
CENTER_NAME    = EARTH
REF_FRAME      = TEME
TIME_SYSTEM    = UTC
MEAN_ELEMENT_THEORY = SGP/SGP4

EPOCH          = 2026-02-09T06:34:48.565344
MEAN_MOTION    = 15.66393879
ECCENTRICITY   = .00027665
INCLINATION    = 41.4766
RA_OF_ASC_NODE = 17.9863
ARG_OF_PERICENTER = 286.9466
MEAN_ANOMALY   = 73.1072

EPHEMERIS_TYPE = 0
CLASSIFICATION_TYPE = U
NORAD_CAT_ID   = 66515
ELEMENT_SET_NO = 999
REV_AT_EPOCH   = 1361
BSTAR          = .34918924E-3
MEAN_MOTION_DOT = .37161E-3
MEAN_MOTION_DDOT = 0

